start=new Date('2022-01-18T00:00:00.000Z').valueOf();
sats=[{"APOAPSIS":"350.586","CLASSIFICATION_TYPE":"U","RCS_SIZE":"LARGE","MEAN_ANOMALY":"255.3753","REF_FRAME":"TEME","OBJECT_NAME":"STARLINK-3267","COUNTRY_CODE":"US","REV_AT_EPOCH":"370","TLE_LINE1":"1 50197U 21125AT  22017.91667824  .00054630  00000-0  39154-3 0  9991","OBJECT_ID":"2021-125AT","LAUNCH_DATE":"2021-12-18","EPHEMERIS_TYPE":"0","MEAN_ELEMENT_THEORY":"SGP4","MEAN_MOTION_DOT":"0.00054630","MEAN_MOTION_DDOT":"0.0000000000000","SITE":"AFWTR","PERIOD":"91.535","ELEMENT_SET_NO":"999","INCLINATION":"53.2160","GP_ID":"194089815","TLE_LINE2":"2 50197  53.2160 215.1509 0001123  78.0397 255.3753 15.73175343  3704","NORAD_CAT_ID":"50197","EPOCH":"2022-01-17T22:00:00.999936","DECAY_DATE":null,"PERIAPSIS":"349.075","BSTAR":"0.00039154000000","OBJECT_TYPE":"PAYLOAD","SEMIMAJOR_AXIS":"6727.965","ECCENTRICITY":"0.00011230","CENTER_NAME":"EARTH","RA_OF_ASC_NODE":"215.1509","ARG_OF_PERICENTER":"78.0397","TIME_SYSTEM":"UTC","FILE":"3276075","MEAN_MOTION":"15.73175343"},{"SEMIMAJOR_AXIS":"6728.010","OBJECT_TYPE":"PAYLOAD","BSTAR":"0.00038649000000","PERIAPSIS":"348.892","DECAY_DATE":null,"NORAD_CAT_ID":"50198","EPOCH":"2022-01-17T22:00:00.999936","MEAN_MOTION":"15.73159824","FILE":"3276075","TIME_SYSTEM":"UTC","ARG_OF_PERICENTER":"78.9812","RA_OF_ASC_NODE":"215.1410","CENTER_NAME":"EARTH","ECCENTRICITY":"0.00014610","COUNTRY_CODE":"US","OBJECT_NAME":"STARLINK-3264","REF_FRAME":"TEME","RCS_SIZE":"LARGE","MEAN_ANOMALY":"258.1510","CLASSIFICATION_TYPE":"U","APOAPSIS":"350.858","TLE_LINE2":"2 50198  53.2152 215.1410 0001461  78.9812 258.1510 15.73159824  3701","GP_ID":"194090065","ELEMENT_SET_NO":"999","PERIOD":"91.536","INCLINATION":"53.2152","SITE":"AFWTR","MEAN_MOTION_DDOT":"0.0000000000000","MEAN_MOTION_DOT":"0.00053877","LAUNCH_DATE":"2021-12-18","MEAN_ELEMENT_THEORY":"SGP4","EPHEMERIS_TYPE":"0","OBJECT_ID":"2021-125AU","TLE_LINE1":"1 50198U 21125AU  22017.91667824  .00053877  00000-0  38649-3 0  9992","REV_AT_EPOCH":"370"},{"TIME_SYSTEM":"UTC","MEAN_MOTION":"15.73144971","FILE":"3276075","ARG_OF_PERICENTER":"46.5535","RA_OF_ASC_NODE":"215.1213","CENTER_NAME":"EARTH","ECCENTRICITY":"0.00013560","PERIAPSIS":"349.005","SEMIMAJOR_AXIS":"6728.052","OBJECT_TYPE":"PAYLOAD","BSTAR":"0.00037827000000","NORAD_CAT_ID":"50199","EPOCH":"2022-01-17T22:00:00.999936","DECAY_DATE":null,"PERIOD":"91.536","ELEMENT_SET_NO":"999","INCLINATION":"53.2147","SITE":"AFWTR","TLE_LINE2":"2 50199  53.2147 215.1213 0001356  46.5535 300.0107 15.73144971  3709","GP_ID":"194090316","TLE_LINE1":"1 50199U 21125AV  22017.91667824  .00052676  00000-0  37827-3 0  9996","REV_AT_EPOCH":"370","MEAN_MOTION_DDOT":"0.0000000000000","MEAN_MOTION_DOT":"0.00052676","LAUNCH_DATE":"2021-12-18","EPHEMERIS_TYPE":"0","MEAN_ELEMENT_THEORY":"SGP4","OBJECT_ID":"2021-125AV","OBJECT_NAME":"STARLINK-3270","COUNTRY_CODE":"US","APOAPSIS":"350.829","REF_FRAME":"TEME","MEAN_ANOMALY":"300.0107","RCS_SIZE":"LARGE","CLASSIFICATION_TYPE":"U"},{"TIME_SYSTEM":"UTC","MEAN_MOTION":"15.73126524","FILE":"3276075","CENTER_NAME":"EARTH","ARG_OF_PERICENTER":"81.9919","RA_OF_ASC_NODE":"215.1471","ECCENTRICITY":"0.00013880","PERIAPSIS":"349.036","OBJECT_TYPE":"PAYLOAD","SEMIMAJOR_AXIS":"6728.105","BSTAR":"0.00039630000000","EPOCH":"2022-01-17T22:00:00.999936","NORAD_CAT_ID":"50200","DECAY_DATE":null,"PERIOD":"91.537","ELEMENT_SET_NO":"999","INCLINATION":"53.2162","SITE":"AFWTR","GP_ID":"194091066","TLE_LINE2":"2 50200  53.2162 215.1471 0001388  81.9919 253.2638 15.73126524  3701","TLE_LINE1":"1 50200U 21125AW  22017.91667824  .00055189  00000-0  39630-3 0  9995","REV_AT_EPOCH":"370","MEAN_MOTION_DOT":"0.00055189","MEAN_MOTION_DDOT":"0.0000000000000","OBJECT_ID":"2021-125AW","LAUNCH_DATE":"2021-12-18","EPHEMERIS_TYPE":"0","MEAN_ELEMENT_THEORY":"SGP4","OBJECT_NAME":"STARLINK-3235","COUNTRY_CODE":"US","APOAPSIS":"350.904","REF_FRAME":"TEME","CLASSIFICATION_TYPE":"U","RCS_SIZE":"LARGE","MEAN_ANOMALY":"253.2638"},{"REV_AT_EPOCH":"370","TLE_LINE1":"1 50201U 21125AX  22017.91667824  .00055920  00000-0  40103-3 0  9996","EPHEMERIS_TYPE":"0","LAUNCH_DATE":"2021-12-18","MEAN_ELEMENT_THEORY":"SGP4","OBJECT_ID":"2021-125AX","MEAN_MOTION_DDOT":"0.0000000000000","MEAN_MOTION_DOT":"0.00055920","SITE":"AFWTR","PERIOD":"91.536","ELEMENT_SET_NO":"999","INCLINATION":"53.2155","TLE_LINE2":"2 50201  53.2155 215.1382 0000917  61.3451 277.6319 15.73151633  3700","GP_ID":"194089315","APOAPSIS":"350.515","RCS_SIZE":"LARGE","MEAN_ANOMALY":"277.6319","CLASSIFICATION_TYPE":"U","REF_FRAME":"TEME","OBJECT_NAME":"STARLINK-3255","COUNTRY_CODE":"US","ECCENTRICITY":"0.00009170","ARG_OF_PERICENTER":"61.3451","RA_OF_ASC_NODE":"215.1382","CENTER_NAME":"EARTH","TIME_SYSTEM":"UTC","FILE":"3276075","MEAN_MOTION":"15.73151633","NORAD_CAT_ID":"50201","EPOCH":"2022-01-17T22:00:00.999936","DECAY_DATE":null,"PERIAPSIS":"349.281","BSTAR":"0.00040103000000","SEMIMAJOR_AXIS":"6728.033","OBJECT_TYPE":"PAYLOAD"},{"TLE_LINE2":"2 50202  53.2177 213.7352 0001336  53.9408 241.9521 15.74301836  3736","GP_ID":"194089565","INCLINATION":"53.2177","PERIOD":"91.469","ELEMENT_SET_NO":"999","SITE":"AFWTR","MEAN_MOTION_DDOT":"0.0000000000000","MEAN_MOTION_DOT":"-0.00592270","MEAN_ELEMENT_THEORY":"SGP4","LAUNCH_DATE":"2021-12-18","EPHEMERIS_TYPE":"0","OBJECT_ID":"2021-125AY","TLE_LINE1":"1 50202U 21125AY  22017.91667824 -.00592270  00000-0 -43097-2 0  9997","REV_AT_EPOCH":"373","COUNTRY_CODE":"US","OBJECT_NAME":"STARLINK-3256","REF_FRAME":"TEME","MEAN_ANOMALY":"241.9521","RCS_SIZE":"LARGE","CLASSIFICATION_TYPE":"U","APOAPSIS":"347.519","MEAN_MOTION":"15.74301836","FILE":"3276075","TIME_SYSTEM":"UTC","ARG_OF_PERICENTER":"53.9408","RA_OF_ASC_NODE":"213.7352","CENTER_NAME":"EARTH","ECCENTRICITY":"0.00013360","SEMIMAJOR_AXIS":"6724.756","OBJECT_TYPE":"PAYLOAD","BSTAR":"-0.00430970000000","PERIAPSIS":"345.722","DECAY_DATE":null,"EPOCH":"2022-01-17T22:00:00.999936","NORAD_CAT_ID":"50202"},{"MEAN_MOTION":"15.73178832","FILE":"3276075","TIME_SYSTEM":"UTC","CENTER_NAME":"EARTH","ARG_OF_PERICENTER":"77.1460","RA_OF_ASC_NODE":"215.1440","ECCENTRICITY":"0.00013800","OBJECT_TYPE":"PAYLOAD","SEMIMAJOR_AXIS":"6727.956","BSTAR":"0.00039749000000","PERIAPSIS":"348.892","DECAY_DATE":null,"EPOCH":"2022-01-17T22:00:00.999936","NORAD_CAT_ID":"50203","GP_ID":"194090817","TLE_LINE2":"2 50203  53.2155 215.1440 0001380  77.1460 259.0816 15.73178832  3703","ELEMENT_SET_NO":"999","PERIOD":"91.534","INCLINATION":"53.2155","SITE":"AFWTR","MEAN_MOTION_DOT":"0.00055484","MEAN_MOTION_DDOT":"0.0000000000000","OBJECT_ID":"2021-125AZ","EPHEMERIS_TYPE":"0","LAUNCH_DATE":"2021-12-18","MEAN_ELEMENT_THEORY":"SGP4","TLE_LINE1":"1 50203U 21125AZ  22017.91667824  .00055484  00000-0  39749-3 0  9997","REV_AT_EPOCH":"370","COUNTRY_CODE":"US","OBJECT_NAME":"STARLINK-3257","REF_FRAME":"TEME","CLASSIFICATION_TYPE":"U","MEAN_ANOMALY":"259.0816","RCS_SIZE":"LARGE","APOAPSIS":"350.749"},{"REV_AT_EPOCH":"370","TLE_LINE1":"1 50204U 21125BA  22017.91667824  .00054306  00000-0  38933-3 0  9994","MEAN_MOTION_DDOT":"0.0000000000000","MEAN_MOTION_DOT":"0.00054306","LAUNCH_DATE":"2021-12-18","MEAN_ELEMENT_THEORY":"SGP4","EPHEMERIS_TYPE":"0","OBJECT_ID":"2021-125BA","ELEMENT_SET_NO":"999","PERIOD":"91.535","INCLINATION":"53.2148","SITE":"AFWTR","TLE_LINE2":"2 50204  53.2148 215.1222 0001261  58.0220 287.5692 15.73171176  3706","GP_ID":"194090566","APOAPSIS":"350.691","REF_FRAME":"TEME","RCS_SIZE":"LARGE","MEAN_ANOMALY":"287.5692","CLASSIFICATION_TYPE":"U","OBJECT_NAME":"STARLINK-3254","COUNTRY_CODE":"US","RA_OF_ASC_NODE":"215.1222","ARG_OF_PERICENTER":"58.0220","CENTER_NAME":"EARTH","ECCENTRICITY":"0.00012610","TIME_SYSTEM":"UTC","MEAN_MOTION":"15.73171176","FILE":"3276075","NORAD_CAT_ID":"50204","EPOCH":"2022-01-17T22:00:00.999936","DECAY_DATE":null,"PERIAPSIS":"348.994","SEMIMAJOR_AXIS":"6727.977","OBJECT_TYPE":"PAYLOAD","BSTAR":"0.00038933000000"},{"APOAPSIS":"300.490","MEAN_ANOMALY":"247.3207","RCS_SIZE":"LARGE","CLASSIFICATION_TYPE":"U","REF_FRAME":"TEME","OBJECT_NAME":"STARLINK-3260","COUNTRY_CODE":"US","REV_AT_EPOCH":"732","TLE_LINE1":"1 50205U 21125BB  22012.78737332 -.00002120  11046-4  42755-5 0  9990","LAUNCH_DATE":"2021-12-18","EPHEMERIS_TYPE":"0","MEAN_ELEMENT_THEORY":"SGP4","OBJECT_ID":"2021-125BB","MEAN_MOTION_DDOT":"0.0000110460000","MEAN_MOTION_DOT":"-0.00002120","SITE":"AFWTR","ELEMENT_SET_NO":"999","PERIOD":"90.515","INCLINATION":"53.2155","TLE_LINE2":"2 50205  53.2155 237.6844 0001085 112.7935 247.3207 15.90900029  7323","GP_ID":"193783028","EPOCH":"2022-01-12T18:53:49.054848","NORAD_CAT_ID":"50205","DECAY_DATE":null,"PERIAPSIS":"299.041","BSTAR":"0.00000427550000","SEMIMAJOR_AXIS":"6677.900","OBJECT_TYPE":"PAYLOAD","ECCENTRICITY":"0.00010850","RA_OF_ASC_NODE":"237.6844","ARG_OF_PERICENTER":"112.7935","CENTER_NAME":"EARTH","TIME_SYSTEM":"UTC","FILE":"3271980","MEAN_MOTION":"15.90900029"},{"MEAN_MOTION_DOT":"0.00055210","MEAN_MOTION_DDOT":"0.0000000000000","OBJECT_ID":"2021-125BC","MEAN_ELEMENT_THEORY":"SGP4","LAUNCH_DATE":"2021-12-18","EPHEMERIS_TYPE":"0","REV_AT_EPOCH":"370","TLE_LINE1":"1 50206U 21125BC  22017.91667824  .00055210  00000-0  39630-3 0  9996","GP_ID":"194090066","TLE_LINE2":"2 50206  53.2155 215.1313 0001269  74.7931 267.0068 15.73135358  3701","INCLINATION":"53.2155","PERIOD":"91.537","ELEMENT_SET_NO":"999","SITE":"AFWTR","REF_FRAME":"TEME","CLASSIFICATION_TYPE":"U","MEAN_ANOMALY":"267.0068","RCS_SIZE":"LARGE","APOAPSIS":"350.798","COUNTRY_CODE":"US","OBJECT_NAME":"STARLINK-3258","CENTER_NAME":"EARTH","ARG_OF_PERICENTER":"74.7931","RA_OF_ASC_NODE":"215.1313","ECCENTRICITY":"0.00012690","MEAN_MOTION":"15.73135358","FILE":"3276075","TIME_SYSTEM":"UTC","DECAY_DATE":null,"NORAD_CAT_ID":"50206","EPOCH":"2022-01-17T22:00:00.999936","OBJECT_TYPE":"PAYLOAD","SEMIMAJOR_AXIS":"6728.079","BSTAR":"0.00039630000000","PERIAPSIS":"349.091"}];
